1 34521U 97051HN  26115.03797562  .00004393  00000+0  81209-3 0  9992
2 34521  86.3789 331.7903 0004009 135.1879 224.9659 14.65214748904238
